{"type": "FeatureCollection", "name": "tile_extents", "features": [{"type": "Feature", "properties": {"id": 1, "name": "N70_W180"}, "geometry": {"type": "Polygon", "coordinates": [[[-180.0004159, 70.00206666666666], [-170.00124923333334, 70.00206666666666], [-170.00124923333334, 60.0029], [-180.0004159, 60.0029], [-180.0004159, 70.00206666666666]]]}}, {"type": "Feature", "properties": {"id": 2, "name": "N80_W170"}, "geometry": {"type": "Polygon", "coordinates": [[[-170.00124920555788, 80.00123333333333], [-160.00208253889122, 80.00123333333333], [-160.00208253889122, 70.00206666666666], [-170.00124920555788, 70.00206666666666], [-170.00124920555788, 80.00123333333333]]]}}, {"type": "Feature", "properties": {"id": 3, "name": "N70_W170"}, "geometry": {"type": "Polygon", "coordinates": [[[-170.00124920555788, 70.00206666666666], [-160.00208253889122, 70.00206666666666], [-160.00208253889122, 60.0029], [-170.00124920555788, 60.0029], [-170.00124920555788, 70.00206666666666]]]}}, {"type": "Feature", "properties": {"id": 4, "name": "N60_W170"}, "geometry": {"type": "Polygon", "coordinates": [[[-170.00124920555788, 60.0029], [-160.00208253889122, 60.0029], [-160.00208253889122, 50.00373333333333], [-170.00124920555788, 50.00373333333333], [-170.00124920555788, 60.0029]]]}}, {"type": "Feature", "properties": {"id": 5, "name": "N80_W160"}, "geometry": {"type": "Polygon", "coordinates": [[[-160.00208251111576, 80.00123333333333], [-150.0029158444491, 80.00123333333333], [-150.0029158444491, 70.00206666666666], [-160.00208251111576, 70.00206666666666], [-160.00208251111576, 80.00123333333333]]]}}, {"type": "Feature", "properties": {"id": 6, "name": "N70_W160"}, "geometry": {"type": "Polygon", "coordinates": [[[-160.00208251111576, 70.00206666666666], [-150.0029158444491, 70.00206666666666], [-150.0029158444491, 60.0029], [-160.00208251111576, 60.0029], [-160.00208251111576, 70.00206666666666]]]}}, {"type": "Feature", "properties": {"id": 7, "name": "N60_W160"}, "geometry": {"type": "Polygon", "coordinates": [[[-160.00208251111576, 60.0029], [-150.0029158444491, 60.0029], [-150.0029158444491, 50.00373333333333], [-160.00208251111576, 50.00373333333333], [-160.00208251111576, 60.0029]]]}}, {"type": "Feature", "properties": {"id": 8, "name": "N80_W150"}, "geometry": {"type": "Polygon", "coordinates": [[[-150.00291581667358, 80.00123333333333], [-140.0037491500069, 80.00123333333333], [-140.0037491500069, 70.00206666666666], [-150.00291581667358, 70.00206666666666], [-150.00291581667358, 80.00123333333333]]]}}, {"type": "Feature", "properties": {"id": 9, "name": "N70_W150"}, "geometry": {"type": "Polygon", "coordinates": [[[-150.00291581667358, 70.00206666666666], [-140.0037491500069, 70.00206666666666], [-140.0037491500069, 60.0029], [-150.00291581667358, 60.0029], [-150.00291581667358, 70.00206666666666]]]}}, {"type": "Feature", "properties": {"id": 10, "name": "N60_W150"}, "geometry": {"type": "Polygon", "coordinates": [[[-150.00291581667358, 60.0029], [-140.0037491500069, 60.0029], [-140.0037491500069, 50.00373333333333], [-150.00291581667358, 50.00373333333333], [-150.00291581667358, 60.0029]]]}}, {"type": "Feature", "properties": {"id": 11, "name": "N80_W140"}, "geometry": {"type": "Polygon", "coordinates": [[[-140.00374912223145, 80.00123333333333], [-130.0045824555648, 80.00123333333333], [-130.0045824555648, 70.00206666666666], [-140.00374912223145, 70.00206666666666], [-140.00374912223145, 80.00123333333333]]]}}, {"type": "Feature", "properties": {"id": 12, "name": "N70_W140"}, "geometry": {"type": "Polygon", "coordinates": [[[-140.00374912223145, 70.00206666666666], [-130.0045824555648, 70.00206666666666], [-130.0045824555648, 60.0029], [-140.00374912223145, 60.0029], [-140.00374912223145, 70.00206666666666]]]}}, {"type": "Feature", "properties": {"id": 13, "name": "N60_W140"}, "geometry": {"type": "Polygon", "coordinates": [[[-140.00374912223145, 60.0029], [-130.0045824555648, 60.0029], [-130.0045824555648, 50.00373333333333], [-140.00374912223145, 50.00373333333333], [-140.00374912223145, 60.0029]]]}}, {"type": "Feature", "properties": {"id": 14, "name": "N80_W130"}, "geometry": {"type": "Polygon", "coordinates": [[[-130.00458242778933, 80.00123333333333], [-120.00541576112266, 80.00123333333333], [-120.00541576112266, 70.00206666666666], [-130.00458242778933, 70.00206666666666], [-130.00458242778933, 80.00123333333333]]]}}, {"type": "Feature", "properties": {"id": 15, "name": "N70_W130"}, "geometry": {"type": "Polygon", "coordinates": [[[-130.00458242778933, 70.00206666666666], [-120.00541576112266, 70.00206666666666], [-120.00541576112266, 60.0029], [-130.00458242778933, 60.0029], [-130.00458242778933, 70.00206666666666]]]}}, {"type": "Feature", "properties": {"id": 16, "name": "N60_W130"}, "geometry": {"type": "Polygon", "coordinates": [[[-130.00458242778933, 60.0029], [-120.00541576112266, 60.0029], [-120.00541576112266, 50.00373333333333], [-130.00458242778933, 50.00373333333333], [-130.00458242778933, 60.0029]]]}}, {"type": "Feature", "properties": {"id": 17, "name": "N50_W130"}, "geometry": {"type": "Polygon", "coordinates": [[[-130.00458242778933, 50.00373333333333], [-120.00541576112266, 50.00373333333333], [-120.00541576112266, 40.00456666666666], [-130.00458242778933, 40.00456666666666], [-130.00458242778933, 50.00373333333333]]]}}, {"type": "Feature", "properties": {"id": 18, "name": "N40_W130"}, "geometry": {"type": "Polygon", "coordinates": [[[-130.00458242778933, 40.00456666666666], [-120.00541576112266, 40.00456666666666], [-120.00541576112266, 30.0054], [-130.00458242778933, 30.0054], [-130.00458242778933, 40.00456666666666]]]}}, {"type": "Feature", "properties": {"id": 19, "name": "N80_W120"}, "geometry": {"type": "Polygon", "coordinates": [[[-120.00541573334722, 80.00123333333333], [-110.00624906668055, 80.00123333333333], [-110.00624906668055, 70.00206666666666], [-120.00541573334722, 70.00206666666666], [-120.00541573334722, 80.00123333333333]]]}}, {"type": "Feature", "properties": {"id": 20, "name": "N70_W120"}, "geometry": {"type": "Polygon", "coordinates": [[[-120.00541573334722, 70.00206666666666], [-110.00624906668055, 70.00206666666666], [-110.00624906668055, 60.0029], [-120.00541573334722, 60.0029], [-120.00541573334722, 70.00206666666666]]]}}, {"type": "Feature", "properties": {"id": 21, "name": "N60_W120"}, "geometry": {"type": "Polygon", "coordinates": [[[-120.00541573334722, 60.0029], [-110.00624906668055, 60.0029], [-110.00624906668055, 50.00373333333333], [-120.00541573334722, 50.00373333333333], [-120.00541573334722, 60.0029]]]}}, {"type": "Feature", "properties": {"id": 22, "name": "N50_W120"}, "geometry": {"type": "Polygon", "coordinates": [[[-120.00541573334722, 50.00373333333333], [-110.00624906668055, 50.00373333333333], [-110.00624906668055, 40.00456666666666], [-120.00541573334722, 40.00456666666666], [-120.00541573334722, 50.00373333333333]]]}}, {"type": "Feature", "properties": {"id": 23, "name": "N40_W120"}, "geometry": {"type": "Polygon", "coordinates": [[[-120.00541573334722, 40.00456666666666], [-110.00624906668055, 40.00456666666666], [-110.00624906668055, 30.0054], [-120.00541573334722, 30.0054], [-120.00541573334722, 40.00456666666666]]]}}, {"type": "Feature", "properties": {"id": 24, "name": "N30_W120"}, "geometry": {"type": "Polygon", "coordinates": [[[-120.00541573334722, 30.0054], [-110.00624906668055, 30.0054], [-110.00624906668055, 20.006233333333327], [-120.00541573334722, 20.006233333333327], [-120.00541573334722, 30.0054]]]}}, {"type": "Feature", "properties": {"id": 25, "name": "N80_W110"}, "geometry": {"type": "Polygon", "coordinates": [[[-110.00624903890508, 80.00123333333333], [-100.00708237223841, 80.00123333333333], [-100.00708237223841, 70.00206666666666], [-110.00624903890508, 70.00206666666666], [-110.00624903890508, 80.00123333333333]]]}}, {"type": "Feature", "properties": {"id": 26, "name": "N70_W110"}, "geometry": {"type": "Polygon", "coordinates": [[[-110.00624903890508, 70.00206666666666], [-100.00708237223841, 70.00206666666666], [-100.00708237223841, 60.0029], [-110.00624903890508, 60.0029], [-110.00624903890508, 70.00206666666666]]]}}, {"type": "Feature", "properties": {"id": 27, "name": "N60_W110"}, "geometry": {"type": "Polygon", "coordinates": [[[-110.00624903890508, 60.0029], [-100.00708237223841, 60.0029], [-100.00708237223841, 50.00373333333333], [-110.00624903890508, 50.00373333333333], [-110.00624903890508, 60.0029]]]}}, {"type": "Feature", "properties": {"id": 28, "name": "N50_W110"}, "geometry": {"type": "Polygon", "coordinates": [[[-110.00624903890508, 50.00373333333333], [-100.00708237223841, 50.00373333333333], [-100.00708237223841, 40.00456666666666], [-110.00624903890508, 40.00456666666666], [-110.00624903890508, 50.00373333333333]]]}}, {"type": "Feature", "properties": {"id": 29, "name": "N40_W110"}, "geometry": {"type": "Polygon", "coordinates": [[[-110.00624903890508, 40.00456666666666], [-100.00708237223841, 40.00456666666666], [-100.00708237223841, 30.0054], [-110.00624903890508, 30.0054], [-110.00624903890508, 40.00456666666666]]]}}, {"type": "Feature", "properties": {"id": 30, "name": "N30_W110"}, "geometry": {"type": "Polygon", "coordinates": [[[-110.00624903890508, 30.0054], [-100.00708237223841, 30.0054], [-100.00708237223841, 20.006233333333327], [-110.00624903890508, 20.006233333333327], [-110.00624903890508, 30.0054]]]}}, {"type": "Feature", "properties": {"id": 31, "name": "N20_W110"}, "geometry": {"type": "Polygon", "coordinates": [[[-110.00624903890508, 20.006233333333327], [-100.00708237223841, 20.006233333333327], [-100.00708237223841, 10.00706666666666], [-110.00624903890508, 10.00706666666666], [-110.00624903890508, 20.006233333333327]]]}}, {"type": "Feature", "properties": {"id": 32, "name": "N90_W100"}, "geometry": {"type": "Polygon", "coordinates": [[[-100.00708234446296, 90.0004], [-90.00791567779629, 90.0004], [-90.00791567779629, 80.00123333333333], [-100.00708234446296, 80.00123333333333], [-100.00708234446296, 90.0004]]]}}, {"type": "Feature", "properties": {"id": 33, "name": "N80_W100"}, "geometry": {"type": "Polygon", "coordinates": [[[-100.00708234446296, 80.00123333333333], [-90.00791567779629, 80.00123333333333], [-90.00791567779629, 70.00206666666666], [-100.00708234446296, 70.00206666666666], [-100.00708234446296, 80.00123333333333]]]}}, {"type": "Feature", "properties": {"id": 34, "name": "N70_W100"}, "geometry": {"type": "Polygon", "coordinates": [[[-100.00708234446296, 70.00206666666666], [-90.00791567779629, 70.00206666666666], [-90.00791567779629, 60.0029], [-100.00708234446296, 60.0029], [-100.00708234446296, 70.00206666666666]]]}}, {"type": "Feature", "properties": {"id": 35, "name": "N60_W100"}, "geometry": {"type": "Polygon", "coordinates": [[[-100.00708234446296, 60.0029], [-90.00791567779629, 60.0029], [-90.00791567779629, 50.00373333333333], [-100.00708234446296, 50.00373333333333], [-100.00708234446296, 60.0029]]]}}, {"type": "Feature", "properties": {"id": 36, "name": "N50_W100"}, "geometry": {"type": "Polygon", "coordinates": [[[-100.00708234446296, 50.00373333333333], [-90.00791567779629, 50.00373333333333], [-90.00791567779629, 40.00456666666666], [-100.00708234446296, 40.00456666666666], [-100.00708234446296, 50.00373333333333]]]}}, {"type": "Feature", "properties": {"id": 37, "name": "N40_W100"}, "geometry": {"type": "Polygon", "coordinates": [[[-100.00708234446296, 40.00456666666666], [-90.00791567779629, 40.00456666666666], [-90.00791567779629, 30.0054], [-100.00708234446296, 30.0054], [-100.00708234446296, 40.00456666666666]]]}}, {"type": "Feature", "properties": {"id": 38, "name": "N30_W100"}, "geometry": {"type": "Polygon", "coordinates": [[[-100.00708234446296, 30.0054], [-90.00791567779629, 30.0054], [-90.00791567779629, 20.006233333333327], [-100.00708234446296, 20.006233333333327], [-100.00708234446296, 30.0054]]]}}, {"type": "Feature", "properties": {"id": 39, "name": "N20_W100"}, "geometry": {"type": "Polygon", "coordinates": [[[-100.00708234446296, 20.006233333333327], [-90.00791567779629, 20.006233333333327], [-90.00791567779629, 10.00706666666666], [-100.00708234446296, 10.00706666666666], [-100.00708234446296, 20.006233333333327]]]}}, {"type": "Feature", "properties": {"id": 40, "name": "N90_W90"}, "geometry": {"type": "Polygon", "coordinates": [[[-90.00791565002082, 90.0004], [-80.00874898335415, 90.0004], [-80.00874898335415, 80.00123333333333], [-90.00791565002082, 80.00123333333333], [-90.00791565002082, 90.0004]]]}}, {"type": "Feature", "properties": {"id": 41, "name": "N80_W90"}, "geometry": {"type": "Polygon", "coordinates": [[[-90.00791565002082, 80.00123333333333], [-80.00874898335415, 80.00123333333333], [-80.00874898335415, 70.00206666666666], [-90.00791565002082, 70.00206666666666], [-90.00791565002082, 80.00123333333333]]]}}, {"type": "Feature", "properties": {"id": 42, "name": "N70_W90"}, "geometry": {"type": "Polygon", "coordinates": [[[-90.00791565002082, 70.00206666666666], [-80.00874898335415, 70.00206666666666], [-80.00874898335415, 60.0029], [-90.00791565002082, 60.0029], [-90.00791565002082, 70.00206666666666]]]}}, {"type": "Feature", "properties": {"id": 43, "name": "N60_W90"}, "geometry": {"type": "Polygon", "coordinates": [[[-90.00791565002082, 60.0029], [-80.00874898335415, 60.0029], [-80.00874898335415, 50.00373333333333], [-90.00791565002082, 50.00373333333333], [-90.00791565002082, 60.0029]]]}}, {"type": "Feature", "properties": {"id": 44, "name": "N50_W90"}, "geometry": {"type": "Polygon", "coordinates": [[[-90.00791565002082, 50.00373333333333], [-80.00874898335415, 50.00373333333333], [-80.00874898335415, 40.00456666666666], [-90.00791565002082, 40.00456666666666], [-90.00791565002082, 50.00373333333333]]]}}, {"type": "Feature", "properties": {"id": 45, "name": "N40_W90"}, "geometry": {"type": "Polygon", "coordinates": [[[-90.00791565002082, 40.00456666666666], [-80.00874898335415, 40.00456666666666], [-80.00874898335415, 30.0054], [-90.00791565002082, 30.0054], [-90.00791565002082, 40.00456666666666]]]}}, {"type": "Feature", "properties": {"id": 46, "name": "N30_W90"}, "geometry": {"type": "Polygon", "coordinates": [[[-90.00791565002082, 30.0054], [-80.00874898335415, 30.0054], [-80.00874898335415, 20.006233333333327], [-90.00791565002082, 20.006233333333327], [-90.00791565002082, 30.0054]]]}}, {"type": "Feature", "properties": {"id": 47, "name": "N20_W90"}, "geometry": {"type": "Polygon", "coordinates": [[[-90.00791565002082, 20.006233333333327], [-80.00874898335415, 20.006233333333327], [-80.00874898335415, 10.00706666666666], [-90.00791565002082, 10.00706666666666], [-90.00791565002082, 20.006233333333327]]]}}, {"type": "Feature", "properties": {"id": 48, "name": "N10_W90"}, "geometry": {"type": "Polygon", "coordinates": [[[-90.00791565002082, 10.00706666666666], [-80.00874898335415, 10.00706666666666], [-80.00874898335415, 0.0079], [-90.00791565002082, 0.0079], [-90.00791565002082, 10.00706666666666]]]}}, {"type": "Feature", "properties": {"id": 49, "name": "N0_W90"}, "geometry": {"type": "Polygon", "coordinates": [[[-90.00791565002082, 0.0079], [-80.00874898335415, 0.0079], [-80.00874898335415, -9.991266666666675], [-90.00791565002082, -9.991266666666675], [-90.00791565002082, 0.0079]]]}}, {"type": "Feature", "properties": {"id": 50, "name": "N90_W80"}, "geometry": {"type": "Polygon", "coordinates": [[[-80.0087489555787, 90.0004], [-70.00958228891203, 90.0004], [-70.00958228891203, 80.00123333333333], [-80.0087489555787, 80.00123333333333], [-80.0087489555787, 90.0004]]]}}, {"type": "Feature", "properties": {"id": 51, "name": "N80_W80"}, "geometry": {"type": "Polygon", "coordinates": [[[-80.0087489555787, 80.00123333333333], [-70.00958228891203, 80.00123333333333], [-70.00958228891203, 70.00206666666666], [-80.0087489555787, 70.00206666666666], [-80.0087489555787, 80.00123333333333]]]}}, {"type": "Feature", "properties": {"id": 52, "name": "N70_W80"}, "geometry": {"type": "Polygon", "coordinates": [[[-80.0087489555787, 70.00206666666666], [-70.00958228891203, 70.00206666666666], [-70.00958228891203, 60.0029], [-80.0087489555787, 60.0029], [-80.0087489555787, 70.00206666666666]]]}}, {"type": "Feature", "properties": {"id": 53, "name": "N60_W80"}, "geometry": {"type": "Polygon", "coordinates": [[[-80.0087489555787, 60.0029], [-70.00958228891203, 60.0029], [-70.00958228891203, 50.00373333333333], [-80.0087489555787, 50.00373333333333], [-80.0087489555787, 60.0029]]]}}, {"type": "Feature", "properties": {"id": 54, "name": "N50_W80"}, "geometry": {"type": "Polygon", "coordinates": [[[-80.0087489555787, 50.00373333333333], [-70.00958228891203, 50.00373333333333], [-70.00958228891203, 40.00456666666666], [-80.0087489555787, 40.00456666666666], [-80.0087489555787, 50.00373333333333]]]}}, {"type": "Feature", "properties": {"id": 55, "name": "N40_W80"}, "geometry": {"type": "Polygon", "coordinates": [[[-80.0087489555787, 40.00456666666666], [-70.00958228891203, 40.00456666666666], [-70.00958228891203, 30.0054], [-80.0087489555787, 30.0054], [-80.0087489555787, 40.00456666666666]]]}}, {"type": "Feature", "properties": {"id": 56, "name": "N30_W80"}, "geometry": {"type": "Polygon", "coordinates": [[[-80.0087489555787, 30.0054], [-70.00958228891203, 30.0054], [-70.00958228891203, 20.006233333333327], [-80.0087489555787, 20.006233333333327], [-80.0087489555787, 30.0054]]]}}, {"type": "Feature", "properties": {"id": 57, "name": "N20_W80"}, "geometry": {"type": "Polygon", "coordinates": [[[-80.0087489555787, 20.006233333333327], [-70.00958228891203, 20.006233333333327], [-70.00958228891203, 10.00706666666666], [-80.0087489555787, 10.00706666666666], [-80.0087489555787, 20.006233333333327]]]}}, {"type": "Feature", "properties": {"id": 58, "name": "N10_W80"}, "geometry": {"type": "Polygon", "coordinates": [[[-80.0087489555787, 10.00706666666666], [-70.00958228891203, 10.00706666666666], [-70.00958228891203, 0.0079], [-80.0087489555787, 0.0079], [-80.0087489555787, 10.00706666666666]]]}}, {"type": "Feature", "properties": {"id": 59, "name": "N0_W80"}, "geometry": {"type": "Polygon", "coordinates": [[[-80.0087489555787, 0.0079], [-70.00958228891203, 0.0079], [-70.00958228891203, -9.991266666666675], [-80.0087489555787, -9.991266666666675], [-80.0087489555787, 0.0079]]]}}, {"type": "Feature", "properties": {"id": 60, "name": "S10_W80"}, "geometry": {"type": "Polygon", "coordinates": [[[-80.0087489555787, -9.991266666666675], [-70.00958228891203, -9.991266666666675], [-70.00958228891203, -19.990433333333343], [-80.0087489555787, -19.990433333333343], [-80.0087489555787, -9.991266666666675]]]}}, {"type": "Feature", "properties": {"id": 61, "name": "S20_W80"}, "geometry": {"type": "Polygon", "coordinates": [[[-80.0087489555787, -19.990433333333343], [-70.00958228891203, -19.990433333333343], [-70.00958228891203, -29.9896], [-80.0087489555787, -29.9896], [-80.0087489555787, -19.990433333333343]]]}}, {"type": "Feature", "properties": {"id": 62, "name": "S30_W80"}, "geometry": {"type": "Polygon", "coordinates": [[[-80.0087489555787, -29.9896], [-70.00958228891203, -29.9896], [-70.00958228891203, -39.98876666666668], [-80.0087489555787, -39.98876666666668], [-80.0087489555787, -29.9896]]]}}, {"type": "Feature", "properties": {"id": 63, "name": "S40_W80"}, "geometry": {"type": "Polygon", "coordinates": [[[-80.0087489555787, -39.98876666666668], [-70.00958228891203, -39.98876666666668], [-70.00958228891203, -49.987933333333345], [-80.0087489555787, -49.987933333333345], [-80.0087489555787, -39.98876666666668]]]}}, {"type": "Feature", "properties": {"id": 64, "name": "S50_W80"}, "geometry": {"type": "Polygon", "coordinates": [[[-80.0087489555787, -49.987933333333345], [-70.00958228891203, -49.987933333333345], [-70.00958228891203, -59.9871], [-80.0087489555787, -59.9871], [-80.0087489555787, -49.987933333333345]]]}}, {"type": "Feature", "properties": {"id": 65, "name": "N90_W70"}, "geometry": {"type": "Polygon", "coordinates": [[[-70.00958226113656, 90.0004], [-60.01041559446989, 90.0004], [-60.01041559446989, 80.00123333333333], [-70.00958226113656, 80.00123333333333], [-70.00958226113656, 90.0004]]]}}, {"type": "Feature", "properties": {"id": 66, "name": "N80_W70"}, "geometry": {"type": "Polygon", "coordinates": [[[-70.00958226113656, 80.00123333333333], [-60.01041559446989, 80.00123333333333], [-60.01041559446989, 70.00206666666666], [-70.00958226113656, 70.00206666666666], [-70.00958226113656, 80.00123333333333]]]}}, {"type": "Feature", "properties": {"id": 67, "name": "N70_W70"}, "geometry": {"type": "Polygon", "coordinates": [[[-70.00958226113656, 70.00206666666666], [-60.01041559446989, 70.00206666666666], [-60.01041559446989, 60.0029], [-70.00958226113656, 60.0029], [-70.00958226113656, 70.00206666666666]]]}}, {"type": "Feature", "properties": {"id": 68, "name": "N60_W70"}, "geometry": {"type": "Polygon", "coordinates": [[[-70.00958226113656, 60.0029], [-60.01041559446989, 60.0029], [-60.01041559446989, 50.00373333333333], [-70.00958226113656, 50.00373333333333], [-70.00958226113656, 60.0029]]]}}, {"type": "Feature", "properties": {"id": 69, "name": "N50_W70"}, "geometry": {"type": "Polygon", "coordinates": [[[-70.00958226113656, 50.00373333333333], [-60.01041559446989, 50.00373333333333], [-60.01041559446989, 40.00456666666666], [-70.00958226113656, 40.00456666666666], [-70.00958226113656, 50.00373333333333]]]}}, {"type": "Feature", "properties": {"id": 70, "name": "N20_W70"}, "geometry": {"type": "Polygon", "coordinates": [[[-70.00958226113656, 20.006233333333327], [-60.01041559446989, 20.006233333333327], [-60.01041559446989, 10.00706666666666], [-70.00958226113656, 10.00706666666666], [-70.00958226113656, 20.006233333333327]]]}}, {"type": "Feature", "properties": {"id": 71, "name": "N10_W70"}, "geometry": {"type": "Polygon", "coordinates": [[[-70.00958226113656, 10.00706666666666], [-60.01041559446989, 10.00706666666666], [-60.01041559446989, 0.0079], [-70.00958226113656, 0.0079], [-70.00958226113656, 10.00706666666666]]]}}, {"type": "Feature", "properties": {"id": 72, "name": "N0_W70"}, "geometry": {"type": "Polygon", "coordinates": [[[-70.00958226113656, 0.0079], [-60.01041559446989, 0.0079], [-60.01041559446989, -9.991266666666675], [-70.00958226113656, -9.991266666666675], [-70.00958226113656, 0.0079]]]}}, {"type": "Feature", "properties": {"id": 73, "name": "S10_W70"}, "geometry": {"type": "Polygon", "coordinates": [[[-70.00958226113656, -9.991266666666675], [-60.01041559446989, -9.991266666666675], [-60.01041559446989, -19.990433333333343], [-70.00958226113656, -19.990433333333343], [-70.00958226113656, -9.991266666666675]]]}}, {"type": "Feature", "properties": {"id": 74, "name": "S20_W70"}, "geometry": {"type": "Polygon", "coordinates": [[[-70.00958226113656, -19.990433333333343], [-60.01041559446989, -19.990433333333343], [-60.01041559446989, -29.9896], [-70.00958226113656, -29.9896], [-70.00958226113656, -19.990433333333343]]]}}, {"type": "Feature", "properties": {"id": 75, "name": "S30_W70"}, "geometry": {"type": "Polygon", "coordinates": [[[-70.00958226113656, -29.9896], [-60.01041559446989, -29.9896], [-60.01041559446989, -39.98876666666668], [-70.00958226113656, -39.98876666666668], [-70.00958226113656, -29.9896]]]}}, {"type": "Feature", "properties": {"id": 76, "name": "S40_W70"}, "geometry": {"type": "Polygon", "coordinates": [[[-70.00958226113656, -39.98876666666668], [-60.01041559446989, -39.98876666666668], [-60.01041559446989, -49.987933333333345], [-70.00958226113656, -49.987933333333345], [-70.00958226113656, -39.98876666666668]]]}}, {"type": "Feature", "properties": {"id": 77, "name": "S50_W70"}, "geometry": {"type": "Polygon", "coordinates": [[[-70.00958226113656, -49.987933333333345], [-60.01041559446989, -49.987933333333345], [-60.01041559446989, -59.9871], [-70.00958226113656, -59.9871], [-70.00958226113656, -49.987933333333345]]]}}, {"type": "Feature", "properties": {"id": 78, "name": "N80_W60"}, "geometry": {"type": "Polygon", "coordinates": [[[-60.010415566694434, 80.00123333333333], [-50.011248900027766, 80.00123333333333], [-50.011248900027766, 70.00206666666666], [-60.010415566694434, 70.00206666666666], [-60.010415566694434, 80.00123333333333]]]}}, {"type": "Feature", "properties": {"id": 79, "name": "N70_W60"}, "geometry": {"type": "Polygon", "coordinates": [[[-60.010415566694434, 70.00206666666666], [-50.011248900027766, 70.00206666666666], [-50.011248900027766, 60.0029], [-60.010415566694434, 60.0029], [-60.010415566694434, 70.00206666666666]]]}}, {"type": "Feature", "properties": {"id": 80, "name": "N60_W60"}, "geometry": {"type": "Polygon", "coordinates": [[[-60.010415566694434, 60.0029], [-50.011248900027766, 60.0029], [-50.011248900027766, 50.00373333333333], [-60.010415566694434, 50.00373333333333], [-60.010415566694434, 60.0029]]]}}, {"type": "Feature", "properties": {"id": 81, "name": "N50_W60"}, "geometry": {"type": "Polygon", "coordinates": [[[-60.010415566694434, 50.00373333333333], [-50.011248900027766, 50.00373333333333], [-50.011248900027766, 40.00456666666666], [-60.010415566694434, 40.00456666666666], [-60.010415566694434, 50.00373333333333]]]}}, {"type": "Feature", "properties": {"id": 82, "name": "N10_W60"}, "geometry": {"type": "Polygon", "coordinates": [[[-60.010415566694434, 10.00706666666666], [-50.011248900027766, 10.00706666666666], [-50.011248900027766, 0.0079], [-60.010415566694434, 0.0079], [-60.010415566694434, 10.00706666666666]]]}}, {"type": "Feature", "properties": {"id": 83, "name": "N0_W60"}, "geometry": {"type": "Polygon", "coordinates": [[[-60.010415566694434, 0.0079], [-50.011248900027766, 0.0079], [-50.011248900027766, -9.991266666666675], [-60.010415566694434, -9.991266666666675], [-60.010415566694434, 0.0079]]]}}, {"type": "Feature", "properties": {"id": 84, "name": "S10_W60"}, "geometry": {"type": "Polygon", "coordinates": [[[-60.010415566694434, -9.991266666666675], [-50.011248900027766, -9.991266666666675], [-50.011248900027766, -19.990433333333343], [-60.010415566694434, -19.990433333333343], [-60.010415566694434, -9.991266666666675]]]}}, {"type": "Feature", "properties": {"id": 85, "name": "S20_W60"}, "geometry": {"type": "Polygon", "coordinates": [[[-60.010415566694434, -19.990433333333343], [-50.011248900027766, -19.990433333333343], [-50.011248900027766, -29.9896], [-60.010415566694434, -29.9896], [-60.010415566694434, -19.990433333333343]]]}}, {"type": "Feature", "properties": {"id": 86, "name": "S30_W60"}, "geometry": {"type": "Polygon", "coordinates": [[[-60.010415566694434, -29.9896], [-50.011248900027766, -29.9896], [-50.011248900027766, -39.98876666666668], [-60.010415566694434, -39.98876666666668], [-60.010415566694434, -29.9896]]]}}, {"type": "Feature", "properties": {"id": 87, "name": "N80_W50"}, "geometry": {"type": "Polygon", "coordinates": [[[-50.011248872252295, 80.00123333333333], [-40.01208220558563, 80.00123333333333], [-40.01208220558563, 70.00206666666666], [-50.011248872252295, 70.00206666666666], [-50.011248872252295, 80.00123333333333]]]}}, {"type": "Feature", "properties": {"id": 88, "name": "N70_W50"}, "geometry": {"type": "Polygon", "coordinates": [[[-50.011248872252295, 70.00206666666666], [-40.01208220558563, 70.00206666666666], [-40.01208220558563, 60.0029], [-50.011248872252295, 60.0029], [-50.011248872252295, 70.00206666666666]]]}}, {"type": "Feature", "properties": {"id": 89, "name": "N60_W50"}, "geometry": {"type": "Polygon", "coordinates": [[[-50.011248872252295, 60.0029], [-40.01208220558563, 60.0029], [-40.01208220558563, 50.00373333333333], [-50.011248872252295, 50.00373333333333], [-50.011248872252295, 60.0029]]]}}, {"type": "Feature", "properties": {"id": 90, "name": "N10_W50"}, "geometry": {"type": "Polygon", "coordinates": [[[-50.011248872252295, 10.00706666666666], [-40.01208220558563, 10.00706666666666], [-40.01208220558563, 0.0079], [-50.011248872252295, 0.0079], [-50.011248872252295, 10.00706666666666]]]}}, {"type": "Feature", "properties": {"id": 91, "name": "N0_W50"}, "geometry": {"type": "Polygon", "coordinates": [[[-50.011248872252295, 0.0079], [-40.01208220558563, 0.0079], [-40.01208220558563, -9.991266666666675], [-50.011248872252295, -9.991266666666675], [-50.011248872252295, 0.0079]]]}}, {"type": "Feature", "properties": {"id": 92, "name": "S10_W50"}, "geometry": {"type": "Polygon", "coordinates": [[[-50.011248872252295, -9.991266666666675], [-40.01208220558563, -9.991266666666675], [-40.01208220558563, -19.990433333333343], [-50.011248872252295, -19.990433333333343], [-50.011248872252295, -9.991266666666675]]]}}, {"type": "Feature", "properties": {"id": 93, "name": "S20_W50"}, "geometry": {"type": "Polygon", "coordinates": [[[-50.011248872252295, -19.990433333333343], [-40.01208220558563, -19.990433333333343], [-40.01208220558563, -29.9896], [-50.011248872252295, -29.9896], [-50.011248872252295, -19.990433333333343]]]}}, {"type": "Feature", "properties": {"id": 94, "name": "N80_W40"}, "geometry": {"type": "Polygon", "coordinates": [[[-40.01208217781017, 80.00123333333333], [-30.012915511143504, 80.00123333333333], [-30.012915511143504, 70.00206666666666], [-40.01208217781017, 70.00206666666666], [-40.01208217781017, 80.00123333333333]]]}}, {"type": "Feature", "properties": {"id": 95, "name": "N70_W40"}, "geometry": {"type": "Polygon", "coordinates": [[[-40.01208217781017, 70.00206666666666], [-30.012915511143504, 70.00206666666666], [-30.012915511143504, 60.0029], [-40.01208217781017, 60.0029], [-40.01208217781017, 70.00206666666666]]]}}, {"type": "Feature", "properties": {"id": 96, "name": "N0_W40"}, "geometry": {"type": "Polygon", "coordinates": [[[-40.01208217781017, 0.0079], [-30.012915511143504, 0.0079], [-30.012915511143504, -9.991266666666675], [-40.01208217781017, -9.991266666666675], [-40.01208217781017, 0.0079]]]}}, {"type": "Feature", "properties": {"id": 97, "name": "S10_W40"}, "geometry": {"type": "Polygon", "coordinates": [[[-40.01208217781017, -9.991266666666675], [-30.012915511143504, -9.991266666666675], [-30.012915511143504, -19.990433333333343], [-40.01208217781017, -19.990433333333343], [-40.01208217781017, -9.991266666666675]]]}}, {"type": "Feature", "properties": {"id": 98, "name": "N80_W30"}, "geometry": {"type": "Polygon", "coordinates": [[[-30.012915483368047, 80.00123333333333], [-20.01374881670138, 80.00123333333333], [-20.01374881670138, 70.00206666666666], [-30.012915483368047, 70.00206666666666], [-30.012915483368047, 80.00123333333333]]]}}, {"type": "Feature", "properties": {"id": 99, "name": "N70_W30"}, "geometry": {"type": "Polygon", "coordinates": [[[-30.012915483368047, 70.00206666666666], [-20.01374881670138, 70.00206666666666], [-20.01374881670138, 60.0029], [-30.012915483368047, 60.0029], [-30.012915483368047, 70.00206666666666]]]}}, {"type": "Feature", "properties": {"id": 100, "name": "N80_W20"}, "geometry": {"type": "Polygon", "coordinates": [[[-20.013748788925923, 80.00123333333333], [-10.014582122259256, 80.00123333333333], [-10.014582122259256, 70.00206666666666], [-20.013748788925923, 70.00206666666666], [-20.013748788925923, 80.00123333333333]]]}}, {"type": "Feature", "properties": {"id": 101, "name": "N70_W20"}, "geometry": {"type": "Polygon", "coordinates": [[[-20.013748788925923, 70.00206666666666], [-10.014582122259256, 70.00206666666666], [-10.014582122259256, 60.0029], [-20.013748788925923, 60.0029], [-20.013748788925923, 70.00206666666666]]]}}, {"type": "Feature", "properties": {"id": 102, "name": "N60_W20"}, "geometry": {"type": "Polygon", "coordinates": [[[-20.013748788925923, 60.0029], [-10.014582122259256, 60.0029], [-10.014582122259256, 50.00373333333333], [-20.013748788925923, 50.00373333333333], [-20.013748788925923, 60.0029]]]}}, {"type": "Feature", "properties": {"id": 103, "name": "N30_W20"}, "geometry": {"type": "Polygon", "coordinates": [[[-20.013748788925923, 30.0054], [-10.014582122259256, 30.0054], [-10.014582122259256, 20.006233333333327], [-20.013748788925923, 20.006233333333327], [-20.013748788925923, 30.0054]]]}}, {"type": "Feature", "properties": {"id": 104, "name": "N20_W20"}, "geometry": {"type": "Polygon", "coordinates": [[[-20.013748788925923, 20.006233333333327], [-10.014582122259256, 20.006233333333327], [-10.014582122259256, 10.00706666666666], [-20.013748788925923, 10.00706666666666], [-20.013748788925923, 20.006233333333327]]]}}, {"type": "Feature", "properties": {"id": 105, "name": "N10_W20"}, "geometry": {"type": "Polygon", "coordinates": [[[-20.013748788925923, 10.00706666666666], [-10.014582122259256, 10.00706666666666], [-10.014582122259256, 0.0079], [-20.013748788925923, 0.0079], [-20.013748788925923, 10.00706666666666]]]}}, {"type": "Feature", "properties": {"id": 106, "name": "N60_W10"}, "geometry": {"type": "Polygon", "coordinates": [[[-10.014582094483771, 60.0029], [-0.015415427817103, 60.0029], [-0.015415427817103, 50.00373333333333], [-10.014582094483771, 50.00373333333333], [-10.014582094483771, 60.0029]]]}}, {"type": "Feature", "properties": {"id": 107, "name": "N50_W10"}, "geometry": {"type": "Polygon", "coordinates": [[[-10.014582094483771, 50.00373333333333], [-0.015415427817103, 50.00373333333333], [-0.015415427817103, 40.00456666666666], [-10.014582094483771, 40.00456666666666], [-10.014582094483771, 50.00373333333333]]]}}, {"type": "Feature", "properties": {"id": 108, "name": "N40_W10"}, "geometry": {"type": "Polygon", "coordinates": [[[-10.014582094483771, 40.00456666666666], [-0.015415427817103, 40.00456666666666], [-0.015415427817103, 30.0054], [-10.014582094483771, 30.0054], [-10.014582094483771, 40.00456666666666]]]}}, {"type": "Feature", "properties": {"id": 109, "name": "N30_W10"}, "geometry": {"type": "Polygon", "coordinates": [[[-10.014582094483771, 30.0054], [-0.015415427817103, 30.0054], [-0.015415427817103, 20.006233333333327], [-10.014582094483771, 20.006233333333327], [-10.014582094483771, 30.0054]]]}}, {"type": "Feature", "properties": {"id": 110, "name": "N20_W10"}, "geometry": {"type": "Polygon", "coordinates": [[[-10.014582094483771, 20.006233333333327], [-0.015415427817103, 20.006233333333327], [-0.015415427817103, 10.00706666666666], [-10.014582094483771, 10.00706666666666], [-10.014582094483771, 20.006233333333327]]]}}, {"type": "Feature", "properties": {"id": 111, "name": "N10_W10"}, "geometry": {"type": "Polygon", "coordinates": [[[-10.014582094483771, 10.00706666666666], [-0.015415427817103, 10.00706666666666], [-0.015415427817103, 0.0079], [-10.014582094483771, 0.0079], [-10.014582094483771, 10.00706666666666]]]}}, {"type": "Feature", "properties": {"id": 112, "name": "N70_W0"}, "geometry": {"type": "Polygon", "coordinates": [[[-0.015415400041647, 70.00206666666666], [9.98375126662502, 70.00206666666666], [9.98375126662502, 60.0029], [-0.015415400041647, 60.0029], [-0.015415400041647, 70.00206666666666]]]}}, {"type": "Feature", "properties": {"id": 113, "name": "N60_W0"}, "geometry": {"type": "Polygon", "coordinates": [[[-0.015415400041647, 60.0029], [9.98375126662502, 60.0029], [9.98375126662502, 50.00373333333333], [-0.015415400041647, 50.00373333333333], [-0.015415400041647, 60.0029]]]}}, {"type": "Feature", "properties": {"id": 114, "name": "N50_W0"}, "geometry": {"type": "Polygon", "coordinates": [[[-0.015415400041647, 50.00373333333333], [9.98375126662502, 50.00373333333333], [9.98375126662502, 40.00456666666666], [-0.015415400041647, 40.00456666666666], [-0.015415400041647, 50.00373333333333]]]}}, {"type": "Feature", "properties": {"id": 115, "name": "N40_W0"}, "geometry": {"type": "Polygon", "coordinates": [[[-0.015415400041647, 40.00456666666666], [9.98375126662502, 40.00456666666666], [9.98375126662502, 30.0054], [-0.015415400041647, 30.0054], [-0.015415400041647, 40.00456666666666]]]}}, {"type": "Feature", "properties": {"id": 116, "name": "N30_W0"}, "geometry": {"type": "Polygon", "coordinates": [[[-0.015415400041647, 30.0054], [9.98375126662502, 30.0054], [9.98375126662502, 20.006233333333327], [-0.015415400041647, 20.006233333333327], [-0.015415400041647, 30.0054]]]}}, {"type": "Feature", "properties": {"id": 117, "name": "N20_W0"}, "geometry": {"type": "Polygon", "coordinates": [[[-0.015415400041647, 20.006233333333327], [9.98375126662502, 20.006233333333327], [9.98375126662502, 10.00706666666666], [-0.015415400041647, 10.00706666666666], [-0.015415400041647, 20.006233333333327]]]}}, {"type": "Feature", "properties": {"id": 118, "name": "N10_W0"}, "geometry": {"type": "Polygon", "coordinates": [[[-0.015415400041647, 10.00706666666666], [9.98375126662502, 10.00706666666666], [9.98375126662502, 0.0079], [-0.015415400041647, 0.0079], [-0.015415400041647, 10.00706666666666]]]}}, {"type": "Feature", "properties": {"id": 119, "name": "N0_W0"}, "geometry": {"type": "Polygon", "coordinates": [[[-0.015415400041647, 0.0079], [9.98375126662502, 0.0079], [9.98375126662502, -9.991266666666675], [-0.015415400041647, -9.991266666666675], [-0.015415400041647, 0.0079]]]}}, {"type": "Feature", "properties": {"id": 120, "name": "N70_E10"}, "geometry": {"type": "Polygon", "coordinates": [[[9.983751294400477, 70.00206666666666], [19.982917961067145, 70.00206666666666], [19.982917961067145, 60.0029], [9.983751294400477, 60.0029], [9.983751294400477, 70.00206666666666]]]}}, {"type": "Feature", "properties": {"id": 121, "name": "N60_E10"}, "geometry": {"type": "Polygon", "coordinates": [[[9.983751294400477, 60.0029], [19.982917961067145, 60.0029], [19.982917961067145, 50.00373333333333], [9.983751294400477, 50.00373333333333], [9.983751294400477, 60.0029]]]}}, {"type": "Feature", "properties": {"id": 122, "name": "N50_E10"}, "geometry": {"type": "Polygon", "coordinates": [[[9.983751294400477, 50.00373333333333], [19.982917961067145, 50.00373333333333], [19.982917961067145, 40.00456666666666], [9.983751294400477, 40.00456666666666], [9.983751294400477, 50.00373333333333]]]}}, {"type": "Feature", "properties": {"id": 123, "name": "N40_E10"}, "geometry": {"type": "Polygon", "coordinates": [[[9.983751294400477, 40.00456666666666], [19.982917961067145, 40.00456666666666], [19.982917961067145, 30.0054], [9.983751294400477, 30.0054], [9.983751294400477, 40.00456666666666]]]}}, {"type": "Feature", "properties": {"id": 124, "name": "N30_E10"}, "geometry": {"type": "Polygon", "coordinates": [[[9.983751294400477, 30.0054], [19.982917961067145, 30.0054], [19.982917961067145, 20.006233333333327], [9.983751294400477, 20.006233333333327], [9.983751294400477, 30.0054]]]}}, {"type": "Feature", "properties": {"id": 125, "name": "N20_E10"}, "geometry": {"type": "Polygon", "coordinates": [[[9.983751294400477, 20.006233333333327], [19.982917961067145, 20.006233333333327], [19.982917961067145, 10.00706666666666], [9.983751294400477, 10.00706666666666], [9.983751294400477, 20.006233333333327]]]}}, {"type": "Feature", "properties": {"id": 126, "name": "N10_E10"}, "geometry": {"type": "Polygon", "coordinates": [[[9.983751294400477, 10.00706666666666], [19.982917961067145, 10.00706666666666], [19.982917961067145, 0.0079], [9.983751294400477, 0.0079], [9.983751294400477, 10.00706666666666]]]}}, {"type": "Feature", "properties": {"id": 127, "name": "N0_E10"}, "geometry": {"type": "Polygon", "coordinates": [[[9.983751294400477, 0.0079], [19.982917961067145, 0.0079], [19.982917961067145, -9.991266666666675], [9.983751294400477, -9.991266666666675], [9.983751294400477, 0.0079]]]}}, {"type": "Feature", "properties": {"id": 128, "name": "S10_E10"}, "geometry": {"type": "Polygon", "coordinates": [[[9.983751294400477, -9.991266666666675], [19.982917961067145, -9.991266666666675], [19.982917961067145, -19.990433333333343], [9.983751294400477, -19.990433333333343], [9.983751294400477, -9.991266666666675]]]}}, {"type": "Feature", "properties": {"id": 129, "name": "S20_E10"}, "geometry": {"type": "Polygon", "coordinates": [[[9.983751294400477, -19.990433333333343], [19.982917961067145, -19.990433333333343], [19.982917961067145, -29.9896], [9.983751294400477, -29.9896], [9.983751294400477, -19.990433333333343]]]}}, {"type": "Feature", "properties": {"id": 130, "name": "S30_E10"}, "geometry": {"type": "Polygon", "coordinates": [[[9.983751294400477, -29.9896], [19.982917961067145, -29.9896], [19.982917961067145, -39.98876666666668], [9.983751294400477, -39.98876666666668], [9.983751294400477, -29.9896]]]}}, {"type": "Feature", "properties": {"id": 131, "name": "N80_E20"}, "geometry": {"type": "Polygon", "coordinates": [[[19.9829179888426, 80.00123333333333], [29.98208465550927, 80.00123333333333], [29.98208465550927, 70.00206666666666], [19.9829179888426, 70.00206666666666], [19.9829179888426, 80.00123333333333]]]}}, {"type": "Feature", "properties": {"id": 132, "name": "N70_E20"}, "geometry": {"type": "Polygon", "coordinates": [[[19.9829179888426, 70.00206666666666], [29.98208465550927, 70.00206666666666], [29.98208465550927, 60.0029], [19.9829179888426, 60.0029], [19.9829179888426, 70.00206666666666]]]}}, {"type": "Feature", "properties": {"id": 133, "name": "N60_E20"}, "geometry": {"type": "Polygon", "coordinates": [[[19.9829179888426, 60.0029], [29.98208465550927, 60.0029], [29.98208465550927, 50.00373333333333], [19.9829179888426, 50.00373333333333], [19.9829179888426, 60.0029]]]}}, {"type": "Feature", "properties": {"id": 134, "name": "N50_E20"}, "geometry": {"type": "Polygon", "coordinates": [[[19.9829179888426, 50.00373333333333], [29.98208465550927, 50.00373333333333], [29.98208465550927, 40.00456666666666], [19.9829179888426, 40.00456666666666], [19.9829179888426, 50.00373333333333]]]}}, {"type": "Feature", "properties": {"id": 135, "name": "N40_E20"}, "geometry": {"type": "Polygon", "coordinates": [[[19.9829179888426, 40.00456666666666], [29.98208465550927, 40.00456666666666], [29.98208465550927, 30.0054], [19.9829179888426, 30.0054], [19.9829179888426, 40.00456666666666]]]}}, {"type": "Feature", "properties": {"id": 136, "name": "N30_E20"}, "geometry": {"type": "Polygon", "coordinates": [[[19.9829179888426, 30.0054], [29.98208465550927, 30.0054], [29.98208465550927, 20.006233333333327], [19.9829179888426, 20.006233333333327], [19.9829179888426, 30.0054]]]}}, {"type": "Feature", "properties": {"id": 137, "name": "N20_E20"}, "geometry": {"type": "Polygon", "coordinates": [[[19.9829179888426, 20.006233333333327], [29.98208465550927, 20.006233333333327], [29.98208465550927, 10.00706666666666], [19.9829179888426, 10.00706666666666], [19.9829179888426, 20.006233333333327]]]}}, {"type": "Feature", "properties": {"id": 138, "name": "N10_E20"}, "geometry": {"type": "Polygon", "coordinates": [[[19.9829179888426, 10.00706666666666], [29.98208465550927, 10.00706666666666], [29.98208465550927, 0.0079], [19.9829179888426, 0.0079], [19.9829179888426, 10.00706666666666]]]}}, {"type": "Feature", "properties": {"id": 139, "name": "N0_E20"}, "geometry": {"type": "Polygon", "coordinates": [[[19.9829179888426, 0.0079], [29.98208465550927, 0.0079], [29.98208465550927, -9.991266666666675], [19.9829179888426, -9.991266666666675], [19.9829179888426, 0.0079]]]}}, {"type": "Feature", "properties": {"id": 140, "name": "S10_E20"}, "geometry": {"type": "Polygon", "coordinates": [[[19.9829179888426, -9.991266666666675], [29.98208465550927, -9.991266666666675], [29.98208465550927, -19.990433333333343], [19.9829179888426, -19.990433333333343], [19.9829179888426, -9.991266666666675]]]}}, {"type": "Feature", "properties": {"id": 141, "name": "S20_E20"}, "geometry": {"type": "Polygon", "coordinates": [[[19.9829179888426, -19.990433333333343], [29.98208465550927, -19.990433333333343], [29.98208465550927, -29.9896], [19.9829179888426, -29.9896], [19.9829179888426, -19.990433333333343]]]}}, {"type": "Feature", "properties": {"id": 142, "name": "S30_E20"}, "geometry": {"type": "Polygon", "coordinates": [[[19.9829179888426, -29.9896], [29.98208465550927, -29.9896], [29.98208465550927, -39.98876666666668], [19.9829179888426, -39.98876666666668], [19.9829179888426, -29.9896]]]}}, {"type": "Feature", "properties": {"id": 143, "name": "N80_E30"}, "geometry": {"type": "Polygon", "coordinates": [[[29.982084683284725, 80.00123333333333], [39.98125134995139, 80.00123333333333], [39.98125134995139, 70.00206666666666], [29.982084683284725, 70.00206666666666], [29.982084683284725, 80.00123333333333]]]}}, {"type": "Feature", "properties": {"id": 144, "name": "N70_E30"}, "geometry": {"type": "Polygon", "coordinates": [[[29.982084683284725, 70.00206666666666], [39.98125134995139, 70.00206666666666], [39.98125134995139, 60.0029], [29.982084683284725, 60.0029], [29.982084683284725, 70.00206666666666]]]}}, {"type": "Feature", "properties": {"id": 145, "name": "N60_E30"}, "geometry": {"type": "Polygon", "coordinates": [[[29.982084683284725, 60.0029], [39.98125134995139, 60.0029], [39.98125134995139, 50.00373333333333], [29.982084683284725, 50.00373333333333], [29.982084683284725, 60.0029]]]}}, {"type": "Feature", "properties": {"id": 146, "name": "N50_E30"}, "geometry": {"type": "Polygon", "coordinates": [[[29.982084683284725, 50.00373333333333], [39.98125134995139, 50.00373333333333], [39.98125134995139, 40.00456666666666], [29.982084683284725, 40.00456666666666], [29.982084683284725, 50.00373333333333]]]}}, {"type": "Feature", "properties": {"id": 147, "name": "N40_E30"}, "geometry": {"type": "Polygon", "coordinates": [[[29.982084683284725, 40.00456666666666], [39.98125134995139, 40.00456666666666], [39.98125134995139, 30.0054], [29.982084683284725, 30.0054], [29.982084683284725, 40.00456666666666]]]}}, {"type": "Feature", "properties": {"id": 148, "name": "N30_E30"}, "geometry": {"type": "Polygon", "coordinates": [[[29.982084683284725, 30.0054], [39.98125134995139, 30.0054], [39.98125134995139, 20.006233333333327], [29.982084683284725, 20.006233333333327], [29.982084683284725, 30.0054]]]}}, {"type": "Feature", "properties": {"id": 149, "name": "N20_E30"}, "geometry": {"type": "Polygon", "coordinates": [[[29.982084683284725, 20.006233333333327], [39.98125134995139, 20.006233333333327], [39.98125134995139, 10.00706666666666], [29.982084683284725, 10.00706666666666], [29.982084683284725, 20.006233333333327]]]}}, {"type": "Feature", "properties": {"id": 150, "name": "N10_E30"}, "geometry": {"type": "Polygon", "coordinates": [[[29.982084683284725, 10.00706666666666], [39.98125134995139, 10.00706666666666], [39.98125134995139, 0.0079], [29.982084683284725, 0.0079], [29.982084683284725, 10.00706666666666]]]}}, {"type": "Feature", "properties": {"id": 151, "name": "N0_E30"}, "geometry": {"type": "Polygon", "coordinates": [[[29.982084683284725, 0.0079], [39.98125134995139, 0.0079], [39.98125134995139, -9.991266666666675], [29.982084683284725, -9.991266666666675], [29.982084683284725, 0.0079]]]}}, {"type": "Feature", "properties": {"id": 152, "name": "S10_E30"}, "geometry": {"type": "Polygon", "coordinates": [[[29.982084683284725, -9.991266666666675], [39.98125134995139, -9.991266666666675], [39.98125134995139, -19.990433333333343], [29.982084683284725, -19.990433333333343], [29.982084683284725, -9.991266666666675]]]}}, {"type": "Feature", "properties": {"id": 153, "name": "S20_E30"}, "geometry": {"type": "Polygon", "coordinates": [[[29.982084683284725, -19.990433333333343], [39.98125134995139, -19.990433333333343], [39.98125134995139, -29.9896], [29.982084683284725, -29.9896], [29.982084683284725, -19.990433333333343]]]}}, {"type": "Feature", "properties": {"id": 154, "name": "S30_E30"}, "geometry": {"type": "Polygon", "coordinates": [[[29.982084683284725, -29.9896], [39.98125134995139, -29.9896], [39.98125134995139, -39.98876666666668], [29.982084683284725, -39.98876666666668], [29.982084683284725, -29.9896]]]}}, {"type": "Feature", "properties": {"id": 155, "name": "N70_E40"}, "geometry": {"type": "Polygon", "coordinates": [[[39.98125137772688, 70.00206666666666], [49.980418044393545, 70.00206666666666], [49.980418044393545, 60.0029], [39.98125137772688, 60.0029], [39.98125137772688, 70.00206666666666]]]}}, {"type": "Feature", "properties": {"id": 156, "name": "N60_E40"}, "geometry": {"type": "Polygon", "coordinates": [[[39.98125137772688, 60.0029], [49.980418044393545, 60.0029], [49.980418044393545, 50.00373333333333], [39.98125137772688, 50.00373333333333], [39.98125137772688, 60.0029]]]}}, {"type": "Feature", "properties": {"id": 157, "name": "N50_E40"}, "geometry": {"type": "Polygon", "coordinates": [[[39.98125137772688, 50.00373333333333], [49.980418044393545, 50.00373333333333], [49.980418044393545, 40.00456666666666], [39.98125137772688, 40.00456666666666], [39.98125137772688, 50.00373333333333]]]}}, {"type": "Feature", "properties": {"id": 158, "name": "N40_E40"}, "geometry": {"type": "Polygon", "coordinates": [[[39.98125137772688, 40.00456666666666], [49.980418044393545, 40.00456666666666], [49.980418044393545, 30.0054], [39.98125137772688, 30.0054], [39.98125137772688, 40.00456666666666]]]}}, {"type": "Feature", "properties": {"id": 159, "name": "N30_E40"}, "geometry": {"type": "Polygon", "coordinates": [[[39.98125137772688, 30.0054], [49.980418044393545, 30.0054], [49.980418044393545, 20.006233333333327], [39.98125137772688, 20.006233333333327], [39.98125137772688, 30.0054]]]}}, {"type": "Feature", "properties": {"id": 160, "name": "N20_E40"}, "geometry": {"type": "Polygon", "coordinates": [[[39.98125137772688, 20.006233333333327], [49.980418044393545, 20.006233333333327], [49.980418044393545, 10.00706666666666], [39.98125137772688, 10.00706666666666], [39.98125137772688, 20.006233333333327]]]}}, {"type": "Feature", "properties": {"id": 161, "name": "N10_E40"}, "geometry": {"type": "Polygon", "coordinates": [[[39.98125137772688, 10.00706666666666], [49.980418044393545, 10.00706666666666], [49.980418044393545, 0.0079], [39.98125137772688, 0.0079], [39.98125137772688, 10.00706666666666]]]}}, {"type": "Feature", "properties": {"id": 162, "name": "N0_E40"}, "geometry": {"type": "Polygon", "coordinates": [[[39.98125137772688, 0.0079], [49.980418044393545, 0.0079], [49.980418044393545, -9.991266666666675], [39.98125137772688, -9.991266666666675], [39.98125137772688, 0.0079]]]}}, {"type": "Feature", "properties": {"id": 163, "name": "S10_E40"}, "geometry": {"type": "Polygon", "coordinates": [[[39.98125137772688, -9.991266666666675], [49.980418044393545, -9.991266666666675], [49.980418044393545, -19.990433333333343], [39.98125137772688, -19.990433333333343], [39.98125137772688, -9.991266666666675]]]}}, {"type": "Feature", "properties": {"id": 164, "name": "S20_E40"}, "geometry": {"type": "Polygon", "coordinates": [[[39.98125137772688, -19.990433333333343], [49.980418044393545, -19.990433333333343], [49.980418044393545, -29.9896], [39.98125137772688, -29.9896], [39.98125137772688, -19.990433333333343]]]}}, {"type": "Feature", "properties": {"id": 165, "name": "N70_E50"}, "geometry": {"type": "Polygon", "coordinates": [[[49.980418072169, 70.00206666666666], [59.97958473883567, 70.00206666666666], [59.97958473883567, 60.0029], [49.980418072169, 60.0029], [49.980418072169, 70.00206666666666]]]}}, {"type": "Feature", "properties": {"id": 166, "name": "N60_E50"}, "geometry": {"type": "Polygon", "coordinates": [[[49.980418072169, 60.0029], [59.97958473883567, 60.0029], [59.97958473883567, 50.00373333333333], [49.980418072169, 50.00373333333333], [49.980418072169, 60.0029]]]}}, {"type": "Feature", "properties": {"id": 167, "name": "N50_E50"}, "geometry": {"type": "Polygon", "coordinates": [[[49.980418072169, 50.00373333333333], [59.97958473883567, 50.00373333333333], [59.97958473883567, 40.00456666666666], [49.980418072169, 40.00456666666666], [49.980418072169, 50.00373333333333]]]}}, {"type": "Feature", "properties": {"id": 168, "name": "N40_E50"}, "geometry": {"type": "Polygon", "coordinates": [[[49.980418072169, 40.00456666666666], [59.97958473883567, 40.00456666666666], [59.97958473883567, 30.0054], [49.980418072169, 30.0054], [49.980418072169, 40.00456666666666]]]}}, {"type": "Feature", "properties": {"id": 169, "name": "N30_E50"}, "geometry": {"type": "Polygon", "coordinates": [[[49.980418072169, 30.0054], [59.97958473883567, 30.0054], [59.97958473883567, 20.006233333333327], [49.980418072169, 20.006233333333327], [49.980418072169, 30.0054]]]}}, {"type": "Feature", "properties": {"id": 170, "name": "N20_E50"}, "geometry": {"type": "Polygon", "coordinates": [[[49.980418072169, 20.006233333333327], [59.97958473883567, 20.006233333333327], [59.97958473883567, 10.00706666666666], [49.980418072169, 10.00706666666666], [49.980418072169, 20.006233333333327]]]}}, {"type": "Feature", "properties": {"id": 171, "name": "N10_E50"}, "geometry": {"type": "Polygon", "coordinates": [[[49.980418072169, 10.00706666666666], [59.97958473883567, 10.00706666666666], [59.97958473883567, 0.0079], [49.980418072169, 0.0079], [49.980418072169, 10.00706666666666]]]}}, {"type": "Feature", "properties": {"id": 172, "name": "S10_E50"}, "geometry": {"type": "Polygon", "coordinates": [[[49.980418072169, -9.991266666666675], [59.97958473883567, -9.991266666666675], [59.97958473883567, -19.990433333333343], [49.980418072169, -19.990433333333343], [49.980418072169, -9.991266666666675]]]}}, {"type": "Feature", "properties": {"id": 173, "name": "N80_E60"}, "geometry": {"type": "Polygon", "coordinates": [[[59.979584766611126, 80.00123333333333], [69.9787514332778, 80.00123333333333], [69.9787514332778, 70.00206666666666], [59.979584766611126, 70.00206666666666], [59.979584766611126, 80.00123333333333]]]}}, {"type": "Feature", "properties": {"id": 174, "name": "N70_E60"}, "geometry": {"type": "Polygon", "coordinates": [[[59.979584766611126, 70.00206666666666], [69.9787514332778, 70.00206666666666], [69.9787514332778, 60.0029], [59.979584766611126, 60.0029], [59.979584766611126, 70.00206666666666]]]}}, {"type": "Feature", "properties": {"id": 175, "name": "N60_E60"}, "geometry": {"type": "Polygon", "coordinates": [[[59.979584766611126, 60.0029], [69.9787514332778, 60.0029], [69.9787514332778, 50.00373333333333], [59.979584766611126, 50.00373333333333], [59.979584766611126, 60.0029]]]}}, {"type": "Feature", "properties": {"id": 176, "name": "N50_E60"}, "geometry": {"type": "Polygon", "coordinates": [[[59.979584766611126, 50.00373333333333], [69.9787514332778, 50.00373333333333], [69.9787514332778, 40.00456666666666], [59.979584766611126, 40.00456666666666], [59.979584766611126, 50.00373333333333]]]}}, {"type": "Feature", "properties": {"id": 177, "name": "N40_E60"}, "geometry": {"type": "Polygon", "coordinates": [[[59.979584766611126, 40.00456666666666], [69.9787514332778, 40.00456666666666], [69.9787514332778, 30.0054], [59.979584766611126, 30.0054], [59.979584766611126, 40.00456666666666]]]}}, {"type": "Feature", "properties": {"id": 178, "name": "N30_E60"}, "geometry": {"type": "Polygon", "coordinates": [[[59.979584766611126, 30.0054], [69.9787514332778, 30.0054], [69.9787514332778, 20.006233333333327], [59.979584766611126, 20.006233333333327], [59.979584766611126, 30.0054]]]}}, {"type": "Feature", "properties": {"id": 179, "name": "N80_E70"}, "geometry": {"type": "Polygon", "coordinates": [[[69.97875146105325, 80.00123333333333], [79.97791812771992, 80.00123333333333], [79.97791812771992, 70.00206666666666], [69.97875146105325, 70.00206666666666], [69.97875146105325, 80.00123333333333]]]}}, {"type": "Feature", "properties": {"id": 180, "name": "N70_E70"}, "geometry": {"type": "Polygon", "coordinates": [[[69.97875146105325, 70.00206666666666], [79.97791812771992, 70.00206666666666], [79.97791812771992, 60.0029], [69.97875146105325, 60.0029], [69.97875146105325, 70.00206666666666]]]}}, {"type": "Feature", "properties": {"id": 181, "name": "N60_E70"}, "geometry": {"type": "Polygon", "coordinates": [[[69.97875146105325, 60.0029], [79.97791812771992, 60.0029], [79.97791812771992, 50.00373333333333], [69.97875146105325, 50.00373333333333], [69.97875146105325, 60.0029]]]}}, {"type": "Feature", "properties": {"id": 182, "name": "N50_E70"}, "geometry": {"type": "Polygon", "coordinates": [[[69.97875146105325, 50.00373333333333], [79.97791812771992, 50.00373333333333], [79.97791812771992, 40.00456666666666], [69.97875146105325, 40.00456666666666], [69.97875146105325, 50.00373333333333]]]}}, {"type": "Feature", "properties": {"id": 183, "name": "N40_E70"}, "geometry": {"type": "Polygon", "coordinates": [[[69.97875146105325, 40.00456666666666], [79.97791812771992, 40.00456666666666], [79.97791812771992, 30.0054], [69.97875146105325, 30.0054], [69.97875146105325, 40.00456666666666]]]}}, {"type": "Feature", "properties": {"id": 184, "name": "N30_E70"}, "geometry": {"type": "Polygon", "coordinates": [[[69.97875146105325, 30.0054], [79.97791812771992, 30.0054], [79.97791812771992, 20.006233333333327], [69.97875146105325, 20.006233333333327], [69.97875146105325, 30.0054]]]}}, {"type": "Feature", "properties": {"id": 185, "name": "N20_E70"}, "geometry": {"type": "Polygon", "coordinates": [[[69.97875146105325, 20.006233333333327], [79.97791812771992, 20.006233333333327], [79.97791812771992, 10.00706666666666], [69.97875146105325, 10.00706666666666], [69.97875146105325, 20.006233333333327]]]}}, {"type": "Feature", "properties": {"id": 186, "name": "N10_E70"}, "geometry": {"type": "Polygon", "coordinates": [[[69.97875146105325, 10.00706666666666], [79.97791812771992, 10.00706666666666], [79.97791812771992, 0.0079], [69.97875146105325, 0.0079], [69.97875146105325, 10.00706666666666]]]}}, {"type": "Feature", "properties": {"id": 187, "name": "N80_E80"}, "geometry": {"type": "Polygon", "coordinates": [[[79.9779181554954, 80.00123333333333], [89.97708482216207, 80.00123333333333], [89.97708482216207, 70.00206666666666], [79.9779181554954, 70.00206666666666], [79.9779181554954, 80.00123333333333]]]}}, {"type": "Feature", "properties": {"id": 188, "name": "N70_E80"}, "geometry": {"type": "Polygon", "coordinates": [[[79.9779181554954, 70.00206666666666], [89.97708482216207, 70.00206666666666], [89.97708482216207, 60.0029], [79.9779181554954, 60.0029], [79.9779181554954, 70.00206666666666]]]}}, {"type": "Feature", "properties": {"id": 189, "name": "N60_E80"}, "geometry": {"type": "Polygon", "coordinates": [[[79.9779181554954, 60.0029], [89.97708482216207, 60.0029], [89.97708482216207, 50.00373333333333], [79.9779181554954, 50.00373333333333], [79.9779181554954, 60.0029]]]}}, {"type": "Feature", "properties": {"id": 190, "name": "N50_E80"}, "geometry": {"type": "Polygon", "coordinates": [[[79.9779181554954, 50.00373333333333], [89.97708482216207, 50.00373333333333], [89.97708482216207, 40.00456666666666], [79.9779181554954, 40.00456666666666], [79.9779181554954, 50.00373333333333]]]}}, {"type": "Feature", "properties": {"id": 191, "name": "N40_E80"}, "geometry": {"type": "Polygon", "coordinates": [[[79.9779181554954, 40.00456666666666], [89.97708482216207, 40.00456666666666], [89.97708482216207, 30.0054], [79.9779181554954, 30.0054], [79.9779181554954, 40.00456666666666]]]}}, {"type": "Feature", "properties": {"id": 192, "name": "N30_E80"}, "geometry": {"type": "Polygon", "coordinates": [[[79.9779181554954, 30.0054], [89.97708482216207, 30.0054], [89.97708482216207, 20.006233333333327], [79.9779181554954, 20.006233333333327], [79.9779181554954, 30.0054]]]}}, {"type": "Feature", "properties": {"id": 193, "name": "N20_E80"}, "geometry": {"type": "Polygon", "coordinates": [[[79.9779181554954, 20.006233333333327], [89.97708482216207, 20.006233333333327], [89.97708482216207, 10.00706666666666], [79.9779181554954, 10.00706666666666], [79.9779181554954, 20.006233333333327]]]}}, {"type": "Feature", "properties": {"id": 194, "name": "N10_E80"}, "geometry": {"type": "Polygon", "coordinates": [[[79.9779181554954, 10.00706666666666], [89.97708482216207, 10.00706666666666], [89.97708482216207, 0.0079], [79.9779181554954, 0.0079], [79.9779181554954, 10.00706666666666]]]}}, {"type": "Feature", "properties": {"id": 195, "name": "N80_E90"}, "geometry": {"type": "Polygon", "coordinates": [[[89.97708484993753, 80.00123333333333], [99.9762515166042, 80.00123333333333], [99.9762515166042, 70.00206666666666], [89.97708484993753, 70.00206666666666], [89.97708484993753, 80.00123333333333]]]}}, {"type": "Feature", "properties": {"id": 196, "name": "N70_E90"}, "geometry": {"type": "Polygon", "coordinates": [[[89.97708484993753, 70.00206666666666], [99.9762515166042, 70.00206666666666], [99.9762515166042, 60.0029], [89.97708484993753, 60.0029], [89.97708484993753, 70.00206666666666]]]}}, {"type": "Feature", "properties": {"id": 197, "name": "N60_E90"}, "geometry": {"type": "Polygon", "coordinates": [[[89.97708484993753, 60.0029], [99.9762515166042, 60.0029], [99.9762515166042, 50.00373333333333], [89.97708484993753, 50.00373333333333], [89.97708484993753, 60.0029]]]}}, {"type": "Feature", "properties": {"id": 198, "name": "N50_E90"}, "geometry": {"type": "Polygon", "coordinates": [[[89.97708484993753, 50.00373333333333], [99.9762515166042, 50.00373333333333], [99.9762515166042, 40.00456666666666], [89.97708484993753, 40.00456666666666], [89.97708484993753, 50.00373333333333]]]}}, {"type": "Feature", "properties": {"id": 199, "name": "N40_E90"}, "geometry": {"type": "Polygon", "coordinates": [[[89.97708484993753, 40.00456666666666], [99.9762515166042, 40.00456666666666], [99.9762515166042, 30.0054], [89.97708484993753, 30.0054], [89.97708484993753, 40.00456666666666]]]}}, {"type": "Feature", "properties": {"id": 200, "name": "N30_E90"}, "geometry": {"type": "Polygon", "coordinates": [[[89.97708484993753, 30.0054], [99.9762515166042, 30.0054], [99.9762515166042, 20.006233333333327], [89.97708484993753, 20.006233333333327], [89.97708484993753, 30.0054]]]}}, {"type": "Feature", "properties": {"id": 201, "name": "N20_E90"}, "geometry": {"type": "Polygon", "coordinates": [[[89.97708484993753, 20.006233333333327], [99.9762515166042, 20.006233333333327], [99.9762515166042, 10.00706666666666], [89.97708484993753, 10.00706666666666], [89.97708484993753, 20.006233333333327]]]}}, {"type": "Feature", "properties": {"id": 202, "name": "N10_E90"}, "geometry": {"type": "Polygon", "coordinates": [[[89.97708484993753, 10.00706666666666], [99.9762515166042, 10.00706666666666], [99.9762515166042, 0.0079], [89.97708484993753, 0.0079], [89.97708484993753, 10.00706666666666]]]}}, {"type": "Feature", "properties": {"id": 203, "name": "N0_E90"}, "geometry": {"type": "Polygon", "coordinates": [[[89.97708484993753, 0.0079], [99.9762515166042, 0.0079], [99.9762515166042, -9.991266666666675], [89.97708484993753, -9.991266666666675], [89.97708484993753, 0.0079]]]}}, {"type": "Feature", "properties": {"id": 204, "name": "N80_E100"}, "geometry": {"type": "Polygon", "coordinates": [[[99.97625154437965, 80.00123333333333], [109.97541821104632, 80.00123333333333], [109.97541821104632, 70.00206666666666], [99.97625154437965, 70.00206666666666], [99.97625154437965, 80.00123333333333]]]}}, {"type": "Feature", "properties": {"id": 205, "name": "N70_E100"}, "geometry": {"type": "Polygon", "coordinates": [[[99.97625154437965, 70.00206666666666], [109.97541821104632, 70.00206666666666], [109.97541821104632, 60.0029], [99.97625154437965, 60.0029], [99.97625154437965, 70.00206666666666]]]}}, {"type": "Feature", "properties": {"id": 206, "name": "N60_E100"}, "geometry": {"type": "Polygon", "coordinates": [[[99.97625154437965, 60.0029], [109.97541821104632, 60.0029], [109.97541821104632, 50.00373333333333], [99.97625154437965, 50.00373333333333], [99.97625154437965, 60.0029]]]}}, {"type": "Feature", "properties": {"id": 207, "name": "N50_E100"}, "geometry": {"type": "Polygon", "coordinates": [[[99.97625154437965, 50.00373333333333], [109.97541821104632, 50.00373333333333], [109.97541821104632, 40.00456666666666], [99.97625154437965, 40.00456666666666], [99.97625154437965, 50.00373333333333]]]}}, {"type": "Feature", "properties": {"id": 208, "name": "N40_E100"}, "geometry": {"type": "Polygon", "coordinates": [[[99.97625154437965, 40.00456666666666], [109.97541821104632, 40.00456666666666], [109.97541821104632, 30.0054], [99.97625154437965, 30.0054], [99.97625154437965, 40.00456666666666]]]}}, {"type": "Feature", "properties": {"id": 209, "name": "N30_E100"}, "geometry": {"type": "Polygon", "coordinates": [[[99.97625154437965, 30.0054], [109.97541821104632, 30.0054], [109.97541821104632, 20.006233333333327], [99.97625154437965, 20.006233333333327], [99.97625154437965, 30.0054]]]}}, {"type": "Feature", "properties": {"id": 210, "name": "N20_E100"}, "geometry": {"type": "Polygon", "coordinates": [[[99.97625154437965, 20.006233333333327], [109.97541821104632, 20.006233333333327], [109.97541821104632, 10.00706666666666], [99.97625154437965, 10.00706666666666], [99.97625154437965, 20.006233333333327]]]}}, {"type": "Feature", "properties": {"id": 211, "name": "N10_E100"}, "geometry": {"type": "Polygon", "coordinates": [[[99.97625154437965, 10.00706666666666], [109.97541821104632, 10.00706666666666], [109.97541821104632, 0.0079], [99.97625154437965, 0.0079], [99.97625154437965, 10.00706666666666]]]}}, {"type": "Feature", "properties": {"id": 212, "name": "N0_E100"}, "geometry": {"type": "Polygon", "coordinates": [[[99.97625154437965, 0.0079], [109.97541821104632, 0.0079], [109.97541821104632, -9.991266666666675], [99.97625154437965, -9.991266666666675], [99.97625154437965, 0.0079]]]}}, {"type": "Feature", "properties": {"id": 213, "name": "N80_E110"}, "geometry": {"type": "Polygon", "coordinates": [[[109.97541823882177, 80.00123333333333], [119.97458490548844, 80.00123333333333], [119.97458490548844, 70.00206666666666], [109.97541823882177, 70.00206666666666], [109.97541823882177, 80.00123333333333]]]}}, {"type": "Feature", "properties": {"id": 214, "name": "N70_E110"}, "geometry": {"type": "Polygon", "coordinates": [[[109.97541823882177, 70.00206666666666], [119.97458490548844, 70.00206666666666], [119.97458490548844, 60.0029], [109.97541823882177, 60.0029], [109.97541823882177, 70.00206666666666]]]}}, {"type": "Feature", "properties": {"id": 215, "name": "N60_E110"}, "geometry": {"type": "Polygon", "coordinates": [[[109.97541823882177, 60.0029], [119.97458490548844, 60.0029], [119.97458490548844, 50.00373333333333], [109.97541823882177, 50.00373333333333], [109.97541823882177, 60.0029]]]}}, {"type": "Feature", "properties": {"id": 216, "name": "N50_E110"}, "geometry": {"type": "Polygon", "coordinates": [[[109.97541823882177, 50.00373333333333], [119.97458490548844, 50.00373333333333], [119.97458490548844, 40.00456666666666], [109.97541823882177, 40.00456666666666], [109.97541823882177, 50.00373333333333]]]}}, {"type": "Feature", "properties": {"id": 217, "name": "N40_E110"}, "geometry": {"type": "Polygon", "coordinates": [[[109.97541823882177, 40.00456666666666], [119.97458490548844, 40.00456666666666], [119.97458490548844, 30.0054], [109.97541823882177, 30.0054], [109.97541823882177, 40.00456666666666]]]}}, {"type": "Feature", "properties": {"id": 218, "name": "N30_E110"}, "geometry": {"type": "Polygon", "coordinates": [[[109.97541823882177, 30.0054], [119.97458490548844, 30.0054], [119.97458490548844, 20.006233333333327], [109.97541823882177, 20.006233333333327], [109.97541823882177, 30.0054]]]}}, {"type": "Feature", "properties": {"id": 219, "name": "N20_E110"}, "geometry": {"type": "Polygon", "coordinates": [[[109.97541823882177, 20.006233333333327], [119.97458490548844, 20.006233333333327], [119.97458490548844, 10.00706666666666], [109.97541823882177, 10.00706666666666], [109.97541823882177, 20.006233333333327]]]}}, {"type": "Feature", "properties": {"id": 220, "name": "N10_E110"}, "geometry": {"type": "Polygon", "coordinates": [[[109.97541823882177, 10.00706666666666], [119.97458490548844, 10.00706666666666], [119.97458490548844, 0.0079], [109.97541823882177, 0.0079], [109.97541823882177, 10.00706666666666]]]}}, {"type": "Feature", "properties": {"id": 221, "name": "N0_E110"}, "geometry": {"type": "Polygon", "coordinates": [[[109.97541823882177, 0.0079], [119.97458490548844, 0.0079], [119.97458490548844, -9.991266666666675], [109.97541823882177, -9.991266666666675], [109.97541823882177, 0.0079]]]}}, {"type": "Feature", "properties": {"id": 222, "name": "S10_E110"}, "geometry": {"type": "Polygon", "coordinates": [[[109.97541823882177, -9.991266666666675], [119.97458490548844, -9.991266666666675], [119.97458490548844, -19.990433333333343], [109.97541823882177, -19.990433333333343], [109.97541823882177, -9.991266666666675]]]}}, {"type": "Feature", "properties": {"id": 223, "name": "S20_E110"}, "geometry": {"type": "Polygon", "coordinates": [[[109.97541823882177, -19.990433333333343], [119.97458490548844, -19.990433333333343], [119.97458490548844, -29.9896], [109.97541823882177, -29.9896], [109.97541823882177, -19.990433333333343]]]}}, {"type": "Feature", "properties": {"id": 224, "name": "S30_E110"}, "geometry": {"type": "Polygon", "coordinates": [[[109.97541823882177, -29.9896], [119.97458490548844, -29.9896], [119.97458490548844, -39.98876666666668], [109.97541823882177, -39.98876666666668], [109.97541823882177, -29.9896]]]}}, {"type": "Feature", "properties": {"id": 225, "name": "N80_E120"}, "geometry": {"type": "Polygon", "coordinates": [[[119.9745849332639, 80.00123333333333], [129.97375159993055, 80.00123333333333], [129.97375159993055, 70.00206666666666], [119.9745849332639, 70.00206666666666], [119.9745849332639, 80.00123333333333]]]}}, {"type": "Feature", "properties": {"id": 226, "name": "N70_E120"}, "geometry": {"type": "Polygon", "coordinates": [[[119.9745849332639, 70.00206666666666], [129.97375159993055, 70.00206666666666], [129.97375159993055, 60.0029], [119.9745849332639, 60.0029], [119.9745849332639, 70.00206666666666]]]}}, {"type": "Feature", "properties": {"id": 227, "name": "N60_E120"}, "geometry": {"type": "Polygon", "coordinates": [[[119.9745849332639, 60.0029], [129.97375159993055, 60.0029], [129.97375159993055, 50.00373333333333], [119.9745849332639, 50.00373333333333], [119.9745849332639, 60.0029]]]}}, {"type": "Feature", "properties": {"id": 228, "name": "N50_E120"}, "geometry": {"type": "Polygon", "coordinates": [[[119.9745849332639, 50.00373333333333], [129.97375159993055, 50.00373333333333], [129.97375159993055, 40.00456666666666], [119.9745849332639, 40.00456666666666], [119.9745849332639, 50.00373333333333]]]}}, {"type": "Feature", "properties": {"id": 229, "name": "N40_E120"}, "geometry": {"type": "Polygon", "coordinates": [[[119.9745849332639, 40.00456666666666], [129.97375159993055, 40.00456666666666], [129.97375159993055, 30.0054], [119.9745849332639, 30.0054], [119.9745849332639, 40.00456666666666]]]}}, {"type": "Feature", "properties": {"id": 230, "name": "N30_E120"}, "geometry": {"type": "Polygon", "coordinates": [[[119.9745849332639, 30.0054], [129.97375159993055, 30.0054], [129.97375159993055, 20.006233333333327], [119.9745849332639, 20.006233333333327], [119.9745849332639, 30.0054]]]}}, {"type": "Feature", "properties": {"id": 231, "name": "N20_E120"}, "geometry": {"type": "Polygon", "coordinates": [[[119.9745849332639, 20.006233333333327], [129.97375159993055, 20.006233333333327], [129.97375159993055, 10.00706666666666], [119.9745849332639, 10.00706666666666], [119.9745849332639, 20.006233333333327]]]}}, {"type": "Feature", "properties": {"id": 232, "name": "N10_E120"}, "geometry": {"type": "Polygon", "coordinates": [[[119.9745849332639, 10.00706666666666], [129.97375159993055, 10.00706666666666], [129.97375159993055, 0.0079], [119.9745849332639, 0.0079], [119.9745849332639, 10.00706666666666]]]}}, {"type": "Feature", "properties": {"id": 233, "name": "N0_E120"}, "geometry": {"type": "Polygon", "coordinates": [[[119.9745849332639, 0.0079], [129.97375159993055, 0.0079], [129.97375159993055, -9.991266666666675], [119.9745849332639, -9.991266666666675], [119.9745849332639, 0.0079]]]}}, {"type": "Feature", "properties": {"id": 234, "name": "S10_E120"}, "geometry": {"type": "Polygon", "coordinates": [[[119.9745849332639, -9.991266666666675], [129.97375159993055, -9.991266666666675], [129.97375159993055, -19.990433333333343], [119.9745849332639, -19.990433333333343], [119.9745849332639, -9.991266666666675]]]}}, {"type": "Feature", "properties": {"id": 235, "name": "S20_E120"}, "geometry": {"type": "Polygon", "coordinates": [[[119.9745849332639, -19.990433333333343], [129.97375159993055, -19.990433333333343], [129.97375159993055, -29.9896], [119.9745849332639, -29.9896], [119.9745849332639, -19.990433333333343]]]}}, {"type": "Feature", "properties": {"id": 236, "name": "S30_E120"}, "geometry": {"type": "Polygon", "coordinates": [[[119.9745849332639, -29.9896], [129.97375159993055, -29.9896], [129.97375159993055, -39.98876666666668], [119.9745849332639, -39.98876666666668], [119.9745849332639, -29.9896]]]}}, {"type": "Feature", "properties": {"id": 237, "name": "N80_E130"}, "geometry": {"type": "Polygon", "coordinates": [[[129.973751627706, 80.00123333333333], [139.97291829437268, 80.00123333333333], [139.97291829437268, 70.00206666666666], [129.973751627706, 70.00206666666666], [129.973751627706, 80.00123333333333]]]}}, {"type": "Feature", "properties": {"id": 238, "name": "N70_E130"}, "geometry": {"type": "Polygon", "coordinates": [[[129.973751627706, 70.00206666666666], [139.97291829437268, 70.00206666666666], [139.97291829437268, 60.0029], [129.973751627706, 60.0029], [129.973751627706, 70.00206666666666]]]}}, {"type": "Feature", "properties": {"id": 239, "name": "N60_E130"}, "geometry": {"type": "Polygon", "coordinates": [[[129.973751627706, 60.0029], [139.97291829437268, 60.0029], [139.97291829437268, 50.00373333333333], [129.973751627706, 50.00373333333333], [129.973751627706, 60.0029]]]}}, {"type": "Feature", "properties": {"id": 240, "name": "N50_E130"}, "geometry": {"type": "Polygon", "coordinates": [[[129.973751627706, 50.00373333333333], [139.97291829437268, 50.00373333333333], [139.97291829437268, 40.00456666666666], [129.973751627706, 40.00456666666666], [129.973751627706, 50.00373333333333]]]}}, {"type": "Feature", "properties": {"id": 241, "name": "N40_E130"}, "geometry": {"type": "Polygon", "coordinates": [[[129.973751627706, 40.00456666666666], [139.97291829437268, 40.00456666666666], [139.97291829437268, 30.0054], [129.973751627706, 30.0054], [129.973751627706, 40.00456666666666]]]}}, {"type": "Feature", "properties": {"id": 242, "name": "N0_E130"}, "geometry": {"type": "Polygon", "coordinates": [[[129.973751627706, 0.0079], [139.97291829437268, 0.0079], [139.97291829437268, -9.991266666666675], [129.973751627706, -9.991266666666675], [129.973751627706, 0.0079]]]}}, {"type": "Feature", "properties": {"id": 243, "name": "S10_E130"}, "geometry": {"type": "Polygon", "coordinates": [[[129.973751627706, -9.991266666666675], [139.97291829437268, -9.991266666666675], [139.97291829437268, -19.990433333333343], [129.973751627706, -19.990433333333343], [129.973751627706, -9.991266666666675]]]}}, {"type": "Feature", "properties": {"id": 244, "name": "S20_E130"}, "geometry": {"type": "Polygon", "coordinates": [[[129.973751627706, -19.990433333333343], [139.97291829437268, -19.990433333333343], [139.97291829437268, -29.9896], [129.973751627706, -29.9896], [129.973751627706, -19.990433333333343]]]}}, {"type": "Feature", "properties": {"id": 245, "name": "S30_E130"}, "geometry": {"type": "Polygon", "coordinates": [[[129.973751627706, -29.9896], [139.97291829437268, -29.9896], [139.97291829437268, -39.98876666666668], [129.973751627706, -39.98876666666668], [129.973751627706, -29.9896]]]}}, {"type": "Feature", "properties": {"id": 246, "name": "N80_E140"}, "geometry": {"type": "Polygon", "coordinates": [[[139.97291832214813, 80.00123333333333], [149.9720849888148, 80.00123333333333], [149.9720849888148, 70.00206666666666], [139.97291832214813, 70.00206666666666], [139.97291832214813, 80.00123333333333]]]}}, {"type": "Feature", "properties": {"id": 247, "name": "N70_E140"}, "geometry": {"type": "Polygon", "coordinates": [[[139.97291832214813, 70.00206666666666], [149.9720849888148, 70.00206666666666], [149.9720849888148, 60.0029], [139.97291832214813, 60.0029], [139.97291832214813, 70.00206666666666]]]}}, {"type": "Feature", "properties": {"id": 248, "name": "N60_E140"}, "geometry": {"type": "Polygon", "coordinates": [[[139.97291832214813, 60.0029], [149.9720849888148, 60.0029], [149.9720849888148, 50.00373333333333], [139.97291832214813, 50.00373333333333], [139.97291832214813, 60.0029]]]}}, {"type": "Feature", "properties": {"id": 249, "name": "N50_E140"}, "geometry": {"type": "Polygon", "coordinates": [[[139.97291832214813, 50.00373333333333], [149.9720849888148, 50.00373333333333], [149.9720849888148, 40.00456666666666], [139.97291832214813, 40.00456666666666], [139.97291832214813, 50.00373333333333]]]}}, {"type": "Feature", "properties": {"id": 250, "name": "N40_E140"}, "geometry": {"type": "Polygon", "coordinates": [[[139.97291832214813, 40.00456666666666], [149.9720849888148, 40.00456666666666], [149.9720849888148, 30.0054], [139.97291832214813, 30.0054], [139.97291832214813, 40.00456666666666]]]}}, {"type": "Feature", "properties": {"id": 251, "name": "N0_E140"}, "geometry": {"type": "Polygon", "coordinates": [[[139.97291832214813, 0.0079], [149.9720849888148, 0.0079], [149.9720849888148, -9.991266666666675], [139.97291832214813, -9.991266666666675], [139.97291832214813, 0.0079]]]}}, {"type": "Feature", "properties": {"id": 252, "name": "S10_E140"}, "geometry": {"type": "Polygon", "coordinates": [[[139.97291832214813, -9.991266666666675], [149.9720849888148, -9.991266666666675], [149.9720849888148, -19.990433333333343], [139.97291832214813, -19.990433333333343], [139.97291832214813, -9.991266666666675]]]}}, {"type": "Feature", "properties": {"id": 253, "name": "S20_E140"}, "geometry": {"type": "Polygon", "coordinates": [[[139.97291832214813, -19.990433333333343], [149.9720849888148, -19.990433333333343], [149.9720849888148, -29.9896], [139.97291832214813, -29.9896], [139.97291832214813, -19.990433333333343]]]}}, {"type": "Feature", "properties": {"id": 254, "name": "S30_E140"}, "geometry": {"type": "Polygon", "coordinates": [[[139.97291832214813, -29.9896], [149.9720849888148, -29.9896], [149.9720849888148, -39.98876666666668], [139.97291832214813, -39.98876666666668], [139.97291832214813, -29.9896]]]}}, {"type": "Feature", "properties": {"id": 255, "name": "S40_E140"}, "geometry": {"type": "Polygon", "coordinates": [[[139.97291832214813, -39.98876666666668], [149.9720849888148, -39.98876666666668], [149.9720849888148, -49.987933333333345], [139.97291832214813, -49.987933333333345], [139.97291832214813, -39.98876666666668]]]}}, {"type": "Feature", "properties": {"id": 256, "name": "N80_E150"}, "geometry": {"type": "Polygon", "coordinates": [[[149.97208501659026, 80.00123333333333], [159.97125168325692, 80.00123333333333], [159.97125168325692, 70.00206666666666], [149.97208501659026, 70.00206666666666], [149.97208501659026, 80.00123333333333]]]}}, {"type": "Feature", "properties": {"id": 257, "name": "N70_E150"}, "geometry": {"type": "Polygon", "coordinates": [[[149.97208501659026, 70.00206666666666], [159.97125168325692, 70.00206666666666], [159.97125168325692, 60.0029], [149.97208501659026, 60.0029], [149.97208501659026, 70.00206666666666]]]}}, {"type": "Feature", "properties": {"id": 258, "name": "N60_E150"}, "geometry": {"type": "Polygon", "coordinates": [[[149.97208501659026, 60.0029], [159.97125168325692, 60.0029], [159.97125168325692, 50.00373333333333], [149.97208501659026, 50.00373333333333], [149.97208501659026, 60.0029]]]}}, {"type": "Feature", "properties": {"id": 259, "name": "N0_E150"}, "geometry": {"type": "Polygon", "coordinates": [[[149.97208501659026, 0.0079], [159.97125168325692, 0.0079], [159.97125168325692, -9.991266666666675], [149.97208501659026, -9.991266666666675], [149.97208501659026, 0.0079]]]}}, {"type": "Feature", "properties": {"id": 260, "name": "S10_E150"}, "geometry": {"type": "Polygon", "coordinates": [[[149.97208501659026, -9.991266666666675], [159.97125168325692, -9.991266666666675], [159.97125168325692, -19.990433333333343], [149.97208501659026, -19.990433333333343], [149.97208501659026, -9.991266666666675]]]}}, {"type": "Feature", "properties": {"id": 261, "name": "S20_E150"}, "geometry": {"type": "Polygon", "coordinates": [[[149.97208501659026, -19.990433333333343], [159.97125168325692, -19.990433333333343], [159.97125168325692, -29.9896], [149.97208501659026, -29.9896], [149.97208501659026, -19.990433333333343]]]}}, {"type": "Feature", "properties": {"id": 262, "name": "S30_E150"}, "geometry": {"type": "Polygon", "coordinates": [[[149.97208501659026, -29.9896], [159.97125168325692, -29.9896], [159.97125168325692, -39.98876666666668], [149.97208501659026, -39.98876666666668], [149.97208501659026, -29.9896]]]}}, {"type": "Feature", "properties": {"id": 263, "name": "N80_E160"}, "geometry": {"type": "Polygon", "coordinates": [[[159.97125171103244, 80.00123333333333], [169.9704183776991, 80.00123333333333], [169.9704183776991, 70.00206666666666], [159.97125171103244, 70.00206666666666], [159.97125171103244, 80.00123333333333]]]}}, {"type": "Feature", "properties": {"id": 264, "name": "N70_E160"}, "geometry": {"type": "Polygon", "coordinates": [[[159.97125171103244, 70.00206666666666], [169.9704183776991, 70.00206666666666], [169.9704183776991, 60.0029], [159.97125171103244, 60.0029], [159.97125171103244, 70.00206666666666]]]}}, {"type": "Feature", "properties": {"id": 265, "name": "N60_E160"}, "geometry": {"type": "Polygon", "coordinates": [[[159.97125171103244, 60.0029], [169.9704183776991, 60.0029], [169.9704183776991, 50.00373333333333], [159.97125171103244, 50.00373333333333], [159.97125171103244, 60.0029]]]}}, {"type": "Feature", "properties": {"id": 266, "name": "S40_E160"}, "geometry": {"type": "Polygon", "coordinates": [[[159.97125171103244, -39.98876666666668], [169.9704183776991, -39.98876666666668], [169.9704183776991, -49.987933333333345], [159.97125171103244, -49.987933333333345], [159.97125171103244, -39.98876666666668]]]}}, {"type": "Feature", "properties": {"id": 267, "name": "N80_E170"}, "geometry": {"type": "Polygon", "coordinates": [[[169.97041840547456, 80.00123333333333], [179.96958507214123, 80.00123333333333], [179.96958507214123, 70.00206666666666], [169.97041840547456, 70.00206666666666], [169.97041840547456, 80.00123333333333]]]}}, {"type": "Feature", "properties": {"id": 268, "name": "N70_E170"}, "geometry": {"type": "Polygon", "coordinates": [[[169.97041840547456, 70.00206666666666], [179.96958507214123, 70.00206666666666], [179.96958507214123, 60.0029], [169.97041840547456, 60.0029], [169.97041840547456, 70.00206666666666]]]}}, {"type": "Feature", "properties": {"id": 269, "name": "N60_E170"}, "geometry": {"type": "Polygon", "coordinates": [[[169.97041840547456, 60.0029], [179.96958507214123, 60.0029], [179.96958507214123, 50.00373333333333], [169.97041840547456, 50.00373333333333], [169.97041840547456, 60.0029]]]}}, {"type": "Feature", "properties": {"id": 270, "name": "S30_E170"}, "geometry": {"type": "Polygon", "coordinates": [[[169.97041840547456, -29.9896], [179.96958507214123, -29.9896], [179.96958507214123, -39.98876666666668], [169.97041840547456, -39.98876666666668], [169.97041840547456, -29.9896]]]}}, {"type": "Feature", "properties": {"id": 271, "name": "S40_E170"}, "geometry": {"type": "Polygon", "coordinates": [[[169.97041840547456, -39.98876666666668], [179.96958507214123, -39.98876666666668], [179.96958507214123, -49.987933333333345], [169.97041840547456, -49.987933333333345], [169.97041840547456, -39.98876666666668]]]}}]}